SKYSAT-A                
1 39418U 13066C   26087.88841036  .00004024  00000+0  23378-3 0  9997
2 39418  97.3915 139.8334 0020446 229.1454 130.8005 15.12487425676347
SKYSAT-B                
1 40072U 14037D   26087.83018725  .00001800  00000+0  20380-3 0  9999
2 40072  98.3759  42.2670 0005684 165.3620 194.7760 14.87796013634017
SKYSAT-C1               
1 41601U 16040C   26087.67455376  .00010772  00000+0  32038-3 0  9994
2 41601  96.9670 123.7981 0001558   9.6950 350.4324 15.34895249545511
SKYSAT-C4               
1 41771U 16058B   26087.81784726  .00019476  00000+0  39989-3 0  9993
2 41771  96.9265 113.0661 0002537 129.9437 230.2037 15.46043777533045
SKYSAT-C5               
1 41772U 16058C   26087.87139959  .00009924  00000+0  30322-3 0  9991
2 41772  97.0581 132.1018 0001402 195.4596 164.6605 15.34066727531430
SKYSAT-C2               
1 41773U 16058D   26087.81227192  .00014896  00000+0  37245-3 0  9998
2 41773  97.0259 113.0069 0003066  21.5261 338.6115 15.40208320532673
SKYSAT-C3               
1 41774U 16058E   26087.94137007  .00025181  00000+0  46311-3 0  9991
2 41774  96.9144 122.0049 0002418 113.9726 246.1780 15.49185943533671
SKYSAT-C11              
1 42987U 17068A   26087.91757053  .00031934  00000+0  50100-3 0  9990
2 42987  97.4231 233.5635 0000455 153.6454 206.4822 15.53627855470762
SKYSAT-C10              
1 42988U 17068B   26087.92344951  .00013245  00000+0  41606-3 0  9997
2 42988  97.4366 224.1362 0001032 107.7991 252.3364 15.33127686470051
SKYSAT-C9               
1 42989U 17068C   26087.95638544  .00017080  00000+0  43625-3 0  9999
2 42989  97.4290 224.3716 0009730  71.0783 289.1517 15.39495883470408
SKYSAT-C8               
1 42990U 17068D   26087.88138704  .00014274  00000+0  41895-3 0  9995
2 42990  97.4383 223.5992 0001211  95.4936 264.6445 15.35265023469982
SKYSAT-C7               
1 42991U 17068E   26087.87207077  .00014186  00000+0  41675-3 0  9993
2 42991  97.4395 224.5741 0006657  45.4542 314.7244 15.35216149470044
SKYSAT-C6               
1 42992U 17068F   26087.89652225  .00012747  00000+0  40276-3 0  9992
2 42992  97.4430 224.8267 0003762  82.1341 278.0328 15.32944306470012
SKYSAT-C12              
1 43797U 18099AR  26087.85332814  .00020129  00000+0  40945-3 0  9992
2 43797  96.9355 114.4369 0006275  91.5851 268.6118 15.46293330409434
SKYSAT-C13              
1 43802U 18099AW  26087.68286984  .00120491  00000+0  63000-3 0  9996
2 43802  96.9362 135.4049 0005511 148.1924 211.9679 15.80487986410164
FLOCK 4Q-16             
1 58271U 23174R   26087.79389941  .00027245  00000+0  56342-3 0  9995
2 58271  97.3840 174.2536 0007916 100.6901 259.5240 15.45747434133147
